[
    {
        "Altitude(m)": 622200.081522011,
        "Argument of Periapsis(deg)": 0.0,
        "Eccentricity": 0.0,
        "Inclination(deg)": 60.0,
        "Latitude(deg)": -52.162467353872216,
        "Longitude(deg)": 62.36083474833469,
        "Mean Anomaly(deg)": -65.45449999999998,
        "RAAN(deg)": 210.0,
        "Satellite Name": "Test1 942",
        "Satellite Number": 942,
        "Semi-Major Axis(m)": 6980739.136638005,
        "Time(s)": 0
    },
    {
        "Altitude(m)": 622058.2488807869,
        "Argument of Periapsis(deg)": 0.00010418945913296404,
        "Eccentricity": 0.0,
        "Inclination(deg)": 60.0,
        "Latitude(deg)": -51.79921614806727,
        "Longitude(deg)": 63.12889035577531,
        "Mean Anomaly(deg)": -64.83439385453813,
        "RAAN(deg)": 209.99957995086027,
        "Satellite Name": "Test1 942",
        "Satellite Number": 942,
        "Semi-Major Axis(m)": 6980739.136638005,
        "Time(s)": 10
    }
]